{
    "links": {
        "self": "http://www.neowsapp.com/rest/v1/neo/3838250?api_key=iIulBulltgU6a56xZRHN4H3l9WmuAYTsLGpBGhQ2"
    },
    "id": "3838250",
    "neo_reference_id": "3838250",
    "name": "(2019 CP4)",
    "designation": "2019 CP4",
    "nasa_jpl_url": "http://ssd.jpl.nasa.gov/sbdb.cgi?sstr=3838250",
    "absolute_magnitude_h": 26.2,
    "estimated_diameter": {
        "kilometers": {
            "estimated_diameter_min": 0.0152951935,
            "estimated_diameter_max": 0.0342010925
        },
        "meters": {
            "estimated_diameter_min": 15.2951935344,
            "estimated_diameter_max": 34.201092472
        },
        "miles": {
            "estimated_diameter_min": 0.0095039897,
            "estimated_diameter_max": 0.021251567
        },
        "feet": {
            "estimated_diameter_min": 50.1810827555,
            "estimated_diameter_max": 112.2083122258
        }
    },
    "is_potentially_hazardous_asteroid": false,
    "close_approach_data": [
        {
            "close_approach_date": "2019-02-22",
            "close_approach_date_full": "2019-Feb-22 00:31",
            "epoch_date_close_approach": 1550795460000,
            "relative_velocity": {
                "kilometers_per_second": "5.6847325524",
                "kilometers_per_hour": "20465.0371885879",
                "miles_per_hour": "12716.1782464312"
            },
            "miss_distance": {
                "astronomical": "0.0709622128",
                "lunar": "27.6043007792",
                "kilometers": "10615795.885366736",
                "miles": "6596349.6863675168"
            },
            "orbiting_body": "Earth"
        }
    ],
    "orbital_data": {
        "orbit_id": "4",
        "orbit_determination_date": "2019-03-07 07:24:28",
        "first_observation_date": "2019-02-05",
        "last_observation_date": "2019-03-06",
        "data_arc_in_days": 29,
        "observations_used": 26,
        "orbit_uncertainty": "7",
        "minimum_orbit_intersection": ".0679059",
        "jupiter_tisserand_invariant": "3.610",
        "epoch_osculation": "2459000.5",
        "eccentricity": ".4905443599203365",
        "semi_major_axis": "2.071814887343266",
        "inclination": "3.210297889568419",
        "ascending_node_longitude": "138.0070029841417",
        "orbital_period": "1089.243184066018",
        "perihelion_distance": "1.055497779558039",
        "perihelion_argument": "18.01572220288821",
        "aphelion_distance": "3.088131995128492",
        "perihelion_time": "2458539.057730862981",
        "mean_anomaly": "152.5088422120972",
        "mean_motion": ".3305047075494765",
        "equinox": "J2000",
        "orbit_class": {
            "orbit_class_type": "AMO",
            "orbit_class_description": "Near-Earth asteroid orbits similar to that of 1221 Amor",
            "orbit_class_range": "1.017 AU < q (perihelion) < 1.3 AU"
        }
    },
    "is_sentry_object": false
}